index,OBJECT_NAME,OBJECT_ID,EPOCH,MEAN_MOTION,ECCENTRICITY,INCLINATION,RA_OF_ASC_NODE,ARG_OF_PERICENTER,MEAN_ANOMALY,EPHEMERIS_TYPE,CLASSIFICATION_TYPE,NORAD_CAT_ID,ELEMENT_SET_NO,REV_AT_EPOCH,BSTAR,MEAN_MOTION_DOT,MEAN_MOTION_DDOT,GROUP,downloaded
197,FLOCK 4X-26,2022-002AU,2022-05-13T03:20:12.365664,15.14550223,0.0013312,97.4871,200.8992,181.3192,178.8007,0,U,51026,999,1808,0.00031766,5.803e-05,0.0,planet,2022-05-13 13:10:39.124476
198,FLOCK 4X-43,2022-002AV,2022-05-12T14:39:46.948320,15.1460537,0.0013217,97.4867,200.3727,180.9661,179.1548,0,U,51027,999,1800,0.0002859,5.224e-05,0.0,planet,2022-05-13 13:10:39.124476
199,FLOCK 4X-13,2022-002AW,2022-05-12T14:35:09.273408,15.14648492,0.0013246,97.4864,200.3747,179.4874,180.6374,0,U,51028,999,1800,0.00029276,5.358e-05,0.0,planet,2022-05-13 13:10:39.124476
200,FLOCK 4X-39,2022-002AX,2022-05-13T03:23:00.500064,15.14629071,0.0013365,97.4863,200.8901,176.2626,183.8709,0,U,51029,999,1808,0.00073148,0.00013493,0.0,planet,2022-05-13 13:10:39.124476
201,FLOCK 4X-17,2022-002BD,2022-05-13T04:38:55.674816,15.14291746,0.0009222,97.4903,200.8826,182.0941,178.0254,0,U,51035,999,1808,0.00082387,0.00015048,0.0,planet,2022-05-13 13:10:39.124476
202,FLOCK 4X-10,2022-002BF,2022-05-13T04:04:12.349632,15.14322911,0.0012238,97.4918,200.9358,182.3604,177.7572,0,U,51037,999,1807,0.0006959,0.00012718,0.0,planet,2022-05-13 13:10:39.124476
203,FLOCK 4X-36,2022-002BH,2022-05-12T15:34:08.201856,15.14534989,0.0010473,97.4915,200.4047,186.8557,173.2534,0,U,51039,999,1800,0.00026983,4.913e-05,0.0,planet,2022-05-13 13:10:39.124476
204,FLOCK 4X-21,2022-002BJ,2022-05-12T15:45:26.847072,15.14352663,0.0009463,97.4891,200.356,181.333,178.7878,0,U,51040,999,1800,0.00076512,0.00013993,0.0,planet,2022-05-13 13:10:39.124476
205,FLOCK 4X-31,2022-002BK,2022-05-13T04:29:48.145056,15.14311673,0.0009736,97.486,200.8168,174.3754,185.7589,0,U,51041,999,1808,0.00079888,0.00014599,0.0,planet,2022-05-13 13:10:39.124476
206,FLOCK 4X-34,2022-002BL,2022-05-12T11:01:53.831712,15.14349939,0.0009848,97.4914,200.1931,187.4702,172.6385,0,U,51042,999,1797,0.00072722,0.00013296,0.0,planet,2022-05-13 13:10:39.124476
207,FLOCK 4X-6,2022-002BM,2022-05-13T02:55:50.462112,15.14296973,0.0009638,97.4897,200.8148,180.5193,179.6031,0,U,51043,999,1807,0.00083559,0.00015267,0.0,planet,2022-05-13 13:10:39.124476
208,FLOCK 4X-28,2022-002BP,2022-05-13T04:24:50.573952,15.14358602,0.0010224,97.487,200.8352,172.5306,187.608,0,U,51045,999,1808,0.00081762,0.00014965,0.0,planet,2022-05-13 13:10:39.124476
209,FLOCK 4X-19,2022-002BQ,2022-05-12T15:41:45.046176,15.14378654,0.0009666,97.4905,200.3799,184.6656,175.4487,0,U,51046,999,1800,0.00075943,0.00013899,0.0,planet,2022-05-13 13:10:39.124476
210,FLOCK 4X-9,2022-002BR,2022-05-13T04:18:35.356032,15.14448777,0.0010202,97.4914,200.9144,184.6946,175.4192,0,U,51047,999,1808,0.0007955,0.00014595,0.0,planet,2022-05-13 13:10:39.124476
211,FLOCK 4X-35,2022-002BS,2022-05-13T04:20:44.244960,15.14489299,0.0009982,97.4851,200.807,178.4267,181.6998,0,U,51048,999,1808,0.00034236,6.244e-05,0.0,planet,2022-05-13 13:10:39.124476
212,FLOCK 4X-11,2022-002BT,2022-05-13T02:57:19.046304,15.14322106,0.000959,97.486,200.7482,181.2169,178.9041,0,U,51049,999,1807,0.00074459,0.00013604,0.0,planet,2022-05-13 13:10:39.124476
213,FLOCK 4X-40,2022-002BW,2022-05-13T04:37:53.259456,15.14367964,0.000925,97.4856,200.8057,179.9581,180.1653,0,U,51052,999,1808,0.00080987,0.00014823,0.0,planet,2022-05-13 13:10:39.124476
214,FLOCK 4X-24,2022-002CA,2022-05-13T04:40:31.789632,15.1428711,0.0009337,97.4867,200.8171,176.0127,184.1181,0,U,51056,999,1808,0.00082764,0.00015116,0.0,planet,2022-05-13 13:10:39.124476
215,FLOCK 4X-4,2022-002CJ,2022-05-12T15:33:05.630976,15.14544472,0.0010337,97.4863,200.3184,176.8028,183.3271,0,U,51064,999,1800,0.00030705,5.602e-05,0.0,planet,2022-05-13 13:10:39.124476
216,FLOCK 4X-7,2022-002CK,2022-05-12T22:00:39.050496,15.14365949,0.0009984,97.4948,200.6316,180.7488,179.3731,0,U,51065,999,1804,0.00027534,4.99e-05,0.0,planet,2022-05-13 13:10:39.124476
217,FLOCK 4X-14,2022-002CL,2022-05-12T15:35:52.649088,15.1449665,0.0010469,97.4933,200.4197,188.2472,171.8589,0,U,51066,999,1800,0.00045883,8.395e-05,0.0,planet,2022-05-13 13:10:39.124476
0,LEMUR-1,2014-033AL,2022-05-12T19:07:56.007264,14.74762204,0.0057011,97.6592,323.2603,274.801,84.6692,0,U,40044,999,42422,0.00014038,9.13e-06,0.0,spire,2022-05-13 13:10:40.270361
1,LEMUR-2-XIAOQING,2016-062C,2022-05-13T03:18:32.618592,15.35835012,0.0001978,51.6359,163.6698,156.391,203.7164,0,U,41871,999,30452,0.00060289,0.00021025,0.0,spire,2022-05-13 13:10:40.270361
2,LEMUR-2-SOKOLSKY,2016-062D,2022-05-12T12:30:04.868352,15.35736441,0.000335,51.679,176.2218,331.5002,28.5798,0,U,41872,999,30439,0.00063142,0.00021972,0.0,spire,2022-05-13 13:10:40.270361
3,LEMUR-2-ANUBHAVTHAKUR,2016-062E,2022-05-12T15:20:45.257280,15.27131078,0.0007746,51.6788,211.9864,150.2114,209.9308,0,U,41873,999,30386,0.00026991,6.944e-05,0.0,spire,2022-05-13 13:10:40.270361
4,LEMUR-2-WINGO,2016-062F,2022-05-12T19:40:07.030848,15.34814588,0.0010123,51.6483,174.9108,80.2935,279.9191,0,U,41874,999,30435,0.0005527,0.00018635,0.0,spire,2022-05-13 13:10:40.270361
5,LEMUR-2-JOBANPUTRA,2017-008AV,2022-05-12T09:50:18.947328,15.30830135,0.0006049,97.2629,194.5577,20.1489,339.999,0,U,41991,999,29066,0.00062336,0.00018532,0.0,spire,2022-05-13 13:10:40.270361
