LEMUR 1
1 40044U 14033AL  22132.79717601  .00000913  00000-0  14038-3 0  9993
2 40044  97.6592 323.2603 0057011 274.8010  84.6692 14.74762204424223
LEMUR 2 XIAOQING
1 41871U 16062C   22133.13787753  .00021025  00000-0  60289-3 0  9996
2 41871  51.6359 163.6698 0001978 156.3910 203.7164 15.35835012304521
LEMUR 2 SOKOLSKY
1 41872U 16062D   22132.52088968  .00021972  00000-0  63142-3 0  9993
2 41872  51.6790 176.2218 0003350 331.5002  28.5798 15.35736441304391
LEMUR 2 ANUBHAVTHAKUR
1 41873U 16062E   22132.63941270  .00006944  00000-0  26991-3 0  9993
2 41873  51.6788 211.9864 0007746 150.2114 209.9308 15.27131078303865
LEMUR 2 WINGO
1 41874U 16062F   22132.81952582  .00018635  00000-0  55270-3 0  9994
2 41874  51.6483 174.9108 0010123  80.2935 279.9191 15.34814588304357
LEMUR 2 JOBANPUTRA
1 41991U 17008AV  22132.40994152  .00018532  00000-0  62336-3 0  9996
2 41991  97.2629 194.5577 0006049  20.1489 339.9990 15.30830135290666
FLOCK 4X 26
1 51026U 22002AU  22133.13903201  .00005803  00000-0  31766-3 0  9992
2 51026  97.4871 200.8992 0013312 181.3192 178.8007 15.14550223 18083
FLOCK 4X 43
1 51027U 22002AV  22132.61096005  .00005224  00000-0  28590-3 0  9998
2 51027  97.4867 200.3727 0013217 180.9661 179.1548 15.14605370 18000
FLOCK 4X 13
1 51028U 22002AW  22132.60774622  .00005358  00000-0  29276-3 0  9996
2 51028  97.4864 200.3747 0013246 179.4874 180.6374 15.14648492 18007
FLOCK 4X 39
1 51029U 22002AX  22133.14097801  .00013493  00000-0  73148-3 0  9990
2 51029  97.4863 200.8901 0013365 176.2626 183.8709 15.14629071 18083
FLOCK 4X 17
1 51035U 22002BD  22133.19369994  .00015048  00000-0  82387-3 0  9990
2 51035  97.4903 200.8826 0009222 182.0941 178.0254 15.14291746 18088
FLOCK 4X 10
1 51037U 22002BF  22133.16958738  .00012718  00000-0  69590-3 0  9991
2 51037  97.4918 200.9358 0012238 182.3604 177.7572 15.14322911 18074
FLOCK 4X 36
1 51039U 22002BH  22132.64870604  .00004913  00000-0  26983-3 0  9997
2 51039  97.4915 200.4047 0010473 186.8557 173.2534 15.14534989 18000
FLOCK 4X 21
1 51040U 22002BJ  22132.65656073  .00013993  00000-0  76512-3 0  9993
2 51040  97.4891 200.3560 0009463 181.3330 178.7878 15.14352663 18008
FLOCK 4X 31
1 51041U 22002BK  22133.18736279  .00014599  00000-0  79888-3 0  9992
2 51041  97.4860 200.8168 0009736 174.3754 185.7589 15.14311673 18080
FLOCK 4X 34
1 51042U 22002BL  22132.45965083  .00013296  00000-0  72722-3 0  9992
2 51042  97.4914 200.1931 0009848 187.4702 172.6385 15.14349939 17976
FLOCK 4X 6
1 51043U 22002BM  22133.12211183  .00015267  00000-0  83559-3 0  9993
2 51043  97.4897 200.8148 0009638 180.5193 179.6031 15.14296973 18075
FLOCK 4X 28
1 51045U 22002BP  22133.18391868  .00014965  00000-0  81762-3 0  9998
2 51045  97.4870 200.8352 0010224 172.5306 187.6080 15.14358602 18087
FLOCK 4X 19
1 51046U 22002BQ  22132.65399359  .00013899  00000-0  75943-3 0  9992
2 51046  97.4905 200.3799 0009666 184.6656 175.4487 15.14378654 18004
FLOCK 4X 9
1 51047U 22002BR  22133.17957588  .00014595  00000-0  79550-3 0  9997
2 51047  97.4914 200.9144 0010202 184.6946 175.4192 15.14448777 18080
FLOCK 4X 35
1 51048U 22002BS  22133.18106765  .00006244  00000-0  34236-3 0  9996
2 51048  97.4851 200.8070 0009982 178.4267 181.6998 15.14489299 18085
FLOCK 4X 11
1 51049U 22002BT  22133.12313711  .00013604  00000-0  74459-3 0  9991
2 51049  97.4860 200.7482 0009590 181.2169 178.9041 15.14322106 18070
FLOCK 4X 40
1 51052U 22002BW  22133.19297754  .00014823  00000-0  80987-3 0  9997
2 51052  97.4856 200.8057 0009250 179.9581 180.1653 15.14367964 18089
FLOCK 4X 24
1 51056U 22002CA  22133.19481238  .00015116  00000-0  82764-3 0  9994
2 51056  97.4867 200.8171 0009337 176.0127 184.1181 15.14287110 18086
FLOCK 4X 4
1 51064U 22002CJ  22132.64798184  .00005602  00000-0  30705-3 0  9990
2 51064  97.4863 200.3184 0010337 176.8028 183.3271 15.14544472 18000
FLOCK 4X 7
1 51065U 22002CK  22132.91711864  .00004990  00000-0  27534-3 0  9996
2 51065  97.4948 200.6316 0009984 180.7488 179.3731 15.14365949 18045
FLOCK 4X 14
1 51066U 22002CL  22132.64991492  .00008395  00000-0  45883-3 0  9994
2 51066  97.4933 200.4197 0010469 188.2472 171.8589 15.14496650 18009
